FLOCK 4H-33             
1 66736U 25276BY  25355.62884756  .00009128  00000+0  44857-3 0  9996
2 66736  97.4433  67.2721 0002403 163.8298 196.3014 15.18264975  3477
FLOCK 4H-34             
1 66737U 25276BZ  25355.76224392  .00007181  00000+0  35503-3 0  9991
2 66737  97.4443  67.4048 0002441 173.4433 186.6833 15.18133706  2740
FLOCK 4H-35             
1 66738U 25276CA  25355.69477095  .00011677  00000+0  57325-3 0  9995
2 66738  97.4402  67.3304 0002184 156.4791 203.6543 15.18234840  2774
FLOCK 4H-36             
1 66739U 25276CB  25355.76453913  .00008419  00000+0  41744-3 0  9995
2 66739  97.4454  67.4050 0002278 189.2497 170.8695 15.17977358  3492
TRANSPORTER-15 CC       
1 66740U 25276CC  25355.76910895  .00008554  00000+0  42754-3 0  9996
2 66740  97.4417  67.3904 0002104 243.3749 116.7270 15.17691202  3499
TRANSPORTER-15 CD       
1 66741U 25276CD  25354.64961335 -.00401721  00000+0 -21786-1 0  9993
2 66741  97.4418  66.2803 0014916 254.9889 104.9694 15.16370519  3329
TRANSPORTER-15 CE       
1 66742U 25276CE  25355.83447681  .00006044  00000+0  30324-3 0  9996
2 66742  97.4409  67.4455 0001547 194.7540 165.3649 15.17683550  3501
TRANSPORTER-15 CF       
1 66743U 25276CF  25355.77196921  .00008001  00000+0  40244-3 0  9995
2 66743  97.4408  67.3760 0000496 245.3816 114.7366 15.17492309  3492
TRANSPORTER-15 CG       
1 66744U 25276CG  25355.70728168  .00310324  00000+0  14734-1 0  9990
2 66744  97.4418  67.3156 0005788 115.3720 244.8113 15.17770931  3486
TRANSPORTER-15 CH       
1 66745U 25276CH  25355.44246052  .00006533  00000+0  33002-3 0  9994
2 66745  97.4419  67.0553 0001396 252.4591 107.6490 15.17413213  3443
TRANSPORTER-15 CJ       
1 66746U 25276CJ  25353.20003709  .00002728  00000+0  13980-3 0  9992
2 66746  97.4422  64.8535 0000962 234.0891 126.0254 15.17416472  3106
W-SERIES 5              
1 66747U 25276CK  25355.77157471  .02793873  00000+0  11911+0 0  9991
2 66747  97.4462  67.3828 0010157 338.4766  21.6040 15.19346661  3490
