CCSDS_OMM_VERS = 2.0
CREATION_DATE  = 
ORIGINATOR     = 

OBJECT_NAME    = FLOCK 4H-33
OBJECT_ID      = 2025-276BY
CENTER_NAME    = EARTH
REF_FRAME      = TEME
TIME_SYSTEM    = UTC
MEAN_ELEMENT_THEORY = SGP/SGP4

EPOCH          = 2025-12-21T15:05:32.429184
MEAN_MOTION    = 15.18264975
ECCENTRICITY   = .0002403
INCLINATION    = 97.4433
RA_OF_ASC_NODE = 67.2721
ARG_OF_PERICENTER = 163.8298
MEAN_ANOMALY   = 196.3014

EPHEMERIS_TYPE = 0
CLASSIFICATION_TYPE = U
NORAD_CAT_ID   = 66736
ELEMENT_SET_NO = 999
REV_AT_EPOCH   = 347
BSTAR          = .44857E-3
MEAN_MOTION_DOT = .9128E-4
MEAN_MOTION_DDOT = 0

CCSDS_OMM_VERS = 2.0
CREATION_DATE  = 
ORIGINATOR     = 

OBJECT_NAME    = FLOCK 4H-34
OBJECT_ID      = 2025-276BZ
CENTER_NAME    = EARTH
REF_FRAME      = TEME
TIME_SYSTEM    = UTC
MEAN_ELEMENT_THEORY = SGP/SGP4

EPOCH          = 2025-12-21T18:17:37.874688
MEAN_MOTION    = 15.18133706
ECCENTRICITY   = .0002441
INCLINATION    = 97.4443
RA_OF_ASC_NODE = 67.4048
ARG_OF_PERICENTER = 173.4433
MEAN_ANOMALY   = 186.6833

EPHEMERIS_TYPE = 0
CLASSIFICATION_TYPE = U
NORAD_CAT_ID   = 66737
ELEMENT_SET_NO = 999
REV_AT_EPOCH   = 274
BSTAR          = .35503E-3
MEAN_MOTION_DOT = .7181E-4
MEAN_MOTION_DDOT = 0

CCSDS_OMM_VERS = 2.0
CREATION_DATE  = 
ORIGINATOR     = 

OBJECT_NAME    = FLOCK 4H-35
OBJECT_ID      = 2025-276CA
CENTER_NAME    = EARTH
REF_FRAME      = TEME
TIME_SYSTEM    = UTC
MEAN_ELEMENT_THEORY = SGP/SGP4

EPOCH          = 2025-12-21T16:40:28.210080
MEAN_MOTION    = 15.18234840
ECCENTRICITY   = .0002184
INCLINATION    = 97.4402
RA_OF_ASC_NODE = 67.3304
ARG_OF_PERICENTER = 156.4791
MEAN_ANOMALY   = 203.6543

EPHEMERIS_TYPE = 0
CLASSIFICATION_TYPE = U
NORAD_CAT_ID   = 66738
ELEMENT_SET_NO = 999
REV_AT_EPOCH   = 277
BSTAR          = .57325E-3
MEAN_MOTION_DOT = .11677E-3
MEAN_MOTION_DDOT = 0

CCSDS_OMM_VERS = 2.0
CREATION_DATE  = 
ORIGINATOR     = 

OBJECT_NAME    = FLOCK 4H-36
OBJECT_ID      = 2025-276CB
CENTER_NAME    = EARTH
REF_FRAME      = TEME
TIME_SYSTEM    = UTC
MEAN_ELEMENT_THEORY = SGP/SGP4

EPOCH          = 2025-12-21T18:20:56.180832
MEAN_MOTION    = 15.17977358
ECCENTRICITY   = .0002278
INCLINATION    = 97.4454
RA_OF_ASC_NODE = 67.4050
ARG_OF_PERICENTER = 189.2497
MEAN_ANOMALY   = 170.8695

EPHEMERIS_TYPE = 0
CLASSIFICATION_TYPE = U
NORAD_CAT_ID   = 66739
ELEMENT_SET_NO = 999
REV_AT_EPOCH   = 349
BSTAR          = .41744E-3
MEAN_MOTION_DOT = .8419E-4
MEAN_MOTION_DDOT = 0

CCSDS_OMM_VERS = 2.0
CREATION_DATE  = 
ORIGINATOR     = 

OBJECT_NAME    = TRANSPORTER-15 CC
OBJECT_ID      = 2025-276CC
CENTER_NAME    = EARTH
REF_FRAME      = TEME
TIME_SYSTEM    = UTC
MEAN_ELEMENT_THEORY = SGP/SGP4

EPOCH          = 2025-12-21T18:27:31.013280
MEAN_MOTION    = 15.17691202
ECCENTRICITY   = .0002104
INCLINATION    = 97.4417
RA_OF_ASC_NODE = 67.3904
ARG_OF_PERICENTER = 243.3749
MEAN_ANOMALY   = 116.7270

EPHEMERIS_TYPE = 0
CLASSIFICATION_TYPE = U
NORAD_CAT_ID   = 66740
ELEMENT_SET_NO = 999
REV_AT_EPOCH   = 349
BSTAR          = .42754E-3
MEAN_MOTION_DOT = .8554E-4
MEAN_MOTION_DDOT = 0

CCSDS_OMM_VERS = 2.0
CREATION_DATE  = 
ORIGINATOR     = 

OBJECT_NAME    = TRANSPORTER-15 CD
OBJECT_ID      = 2025-276CD
CENTER_NAME    = EARTH
REF_FRAME      = TEME
TIME_SYSTEM    = UTC
MEAN_ELEMENT_THEORY = SGP/SGP4

EPOCH          = 2025-12-20T15:35:26.593440
MEAN_MOTION    = 15.16370519
ECCENTRICITY   = .00149164
INCLINATION    = 97.4418
RA_OF_ASC_NODE = 66.2803
ARG_OF_PERICENTER = 254.9889
MEAN_ANOMALY   = 104.9694

EPHEMERIS_TYPE = 0
CLASSIFICATION_TYPE = U
NORAD_CAT_ID   = 66741
ELEMENT_SET_NO = 999
REV_AT_EPOCH   = 332
BSTAR          = -.21786228E-1
MEAN_MOTION_DOT = -.401721E-2
MEAN_MOTION_DDOT = 0

CCSDS_OMM_VERS = 2.0
CREATION_DATE  = 
ORIGINATOR     = 

OBJECT_NAME    = TRANSPORTER-15 CE
OBJECT_ID      = 2025-276CE
CENTER_NAME    = EARTH
REF_FRAME      = TEME
TIME_SYSTEM    = UTC
MEAN_ELEMENT_THEORY = SGP/SGP4

EPOCH          = 2025-12-21T20:01:38.796384
MEAN_MOTION    = 15.17683550
ECCENTRICITY   = .0001547
INCLINATION    = 97.4409
RA_OF_ASC_NODE = 67.4455
ARG_OF_PERICENTER = 194.7540
MEAN_ANOMALY   = 165.3649

EPHEMERIS_TYPE = 0
CLASSIFICATION_TYPE = U
NORAD_CAT_ID   = 66742
ELEMENT_SET_NO = 999
REV_AT_EPOCH   = 350
BSTAR          = .30324E-3
MEAN_MOTION_DOT = .6044E-4
MEAN_MOTION_DDOT = 0

CCSDS_OMM_VERS = 2.0
CREATION_DATE  = 
ORIGINATOR     = 

OBJECT_NAME    = TRANSPORTER-15 CF
OBJECT_ID      = 2025-276CF
CENTER_NAME    = EARTH
REF_FRAME      = TEME
TIME_SYSTEM    = UTC
MEAN_ELEMENT_THEORY = SGP/SGP4

EPOCH          = 2025-12-21T18:31:38.139744
MEAN_MOTION    = 15.17492309
ECCENTRICITY   = .0000496
INCLINATION    = 97.4408
RA_OF_ASC_NODE = 67.3760
ARG_OF_PERICENTER = 245.3816
MEAN_ANOMALY   = 114.7366

EPHEMERIS_TYPE = 0
CLASSIFICATION_TYPE = U
NORAD_CAT_ID   = 66743
ELEMENT_SET_NO = 999
REV_AT_EPOCH   = 349
BSTAR          = .40244E-3
MEAN_MOTION_DOT = .8001E-4
MEAN_MOTION_DDOT = 0

CCSDS_OMM_VERS = 2.0
CREATION_DATE  = 
ORIGINATOR     = 

OBJECT_NAME    = TRANSPORTER-15 CG
OBJECT_ID      = 2025-276CG
CENTER_NAME    = EARTH
REF_FRAME      = TEME
TIME_SYSTEM    = UTC
MEAN_ELEMENT_THEORY = SGP/SGP4

EPOCH          = 2025-12-21T16:58:29.137152
MEAN_MOTION    = 15.17770931
ECCENTRICITY   = .0005788
INCLINATION    = 97.4418
RA_OF_ASC_NODE = 67.3156
ARG_OF_PERICENTER = 115.3720
MEAN_ANOMALY   = 244.8113

EPHEMERIS_TYPE = 0
CLASSIFICATION_TYPE = U
NORAD_CAT_ID   = 66744
ELEMENT_SET_NO = 999
REV_AT_EPOCH   = 348
BSTAR          = .14734E-1
MEAN_MOTION_DOT = .310324E-2
MEAN_MOTION_DDOT = 0

CCSDS_OMM_VERS = 2.0
CREATION_DATE  = 
ORIGINATOR     = 

OBJECT_NAME    = TRANSPORTER-15 CH
OBJECT_ID      = 2025-276CH
CENTER_NAME    = EARTH
REF_FRAME      = TEME
TIME_SYSTEM    = UTC
MEAN_ELEMENT_THEORY = SGP/SGP4

EPOCH          = 2025-12-21T10:37:08.588928
MEAN_MOTION    = 15.17413213
ECCENTRICITY   = .00013964
INCLINATION    = 97.4419
RA_OF_ASC_NODE = 67.0553
ARG_OF_PERICENTER = 252.4591
MEAN_ANOMALY   = 107.6490

EPHEMERIS_TYPE = 0
CLASSIFICATION_TYPE = U
NORAD_CAT_ID   = 66745
ELEMENT_SET_NO = 999
REV_AT_EPOCH   = 344
BSTAR          = .33002421E-3
MEAN_MOTION_DOT = .6533E-4
MEAN_MOTION_DDOT = 0

CCSDS_OMM_VERS = 2.0
CREATION_DATE  = 
ORIGINATOR     = 

OBJECT_NAME    = TRANSPORTER-15 CJ
OBJECT_ID      = 2025-276CJ
CENTER_NAME    = EARTH
REF_FRAME      = TEME
TIME_SYSTEM    = UTC
MEAN_ELEMENT_THEORY = SGP/SGP4

EPOCH          = 2025-12-19T04:48:03.204576
MEAN_MOTION    = 15.17416472
ECCENTRICITY   = .00009628
INCLINATION    = 97.4422
RA_OF_ASC_NODE = 64.8535
ARG_OF_PERICENTER = 234.0891
MEAN_ANOMALY   = 126.0254

EPHEMERIS_TYPE = 0
CLASSIFICATION_TYPE = U
NORAD_CAT_ID   = 66746
ELEMENT_SET_NO = 999
REV_AT_EPOCH   = 310
BSTAR          = .13979791E-3
MEAN_MOTION_DOT = .2728E-4
MEAN_MOTION_DDOT = 0

CCSDS_OMM_VERS = 2.0
CREATION_DATE  = 
ORIGINATOR     = 

OBJECT_NAME    = W-SERIES 5
OBJECT_ID      = 2025-276CK
CENTER_NAME    = EARTH
REF_FRAME      = TEME
TIME_SYSTEM    = UTC
MEAN_ELEMENT_THEORY = SGP/SGP4

EPOCH          = 2025-12-21T18:31:04.054944
MEAN_MOTION    = 15.19346661
ECCENTRICITY   = .0010157
INCLINATION    = 97.4462
RA_OF_ASC_NODE = 67.3828
ARG_OF_PERICENTER = 338.4766
MEAN_ANOMALY   = 21.6040

EPHEMERIS_TYPE = 0
CLASSIFICATION_TYPE = U
NORAD_CAT_ID   = 66747
ELEMENT_SET_NO = 999
REV_AT_EPOCH   = 349
BSTAR          = .11911E+0
MEAN_MOTION_DOT = .2793873E-1
MEAN_MOTION_DDOT = 0

